ONEWEB-0656             
1 55817U 23029X   25081.16330831  .00000041  00000+0  68744-4 0  9990
2 55817  87.9337   4.3834 0001356  94.8758 265.2531 13.20775005102167
ONEWEB-0657             
1 55818U 23029Y   25080.90164091  .00000091  00000+0  19616-3 0  9993
2 55818  87.9226  34.8788 0001074  77.6737 282.4516 13.19725961 99257
ONEWEB-0658             
1 55819U 23029Z   25081.12434978  .00000047  00000+0  85766-4 0  9994
2 55819  87.9226  34.7686 0002119  66.4337 293.7018 13.19726208 99973
ONEWEB-0660             
1 55820U 23029AA  25080.83478476  .00000120  00000+0  28960-3 0  9998
2 55820  87.9083  19.6283 0002252  76.8795 283.2586 13.14502220 99977
ONEWEB-0661             
1 55821U 23029AB  25080.86966935  .00000032  00000+0  52217-4 0  9999
2 55821  87.9080  19.6917 0002241  80.2444 279.8939 13.14502435 99967
ONEWEB-0662             
1 55822U 23029AC  25080.82843194  .00000269  00000+0  69125-3 0  9994
2 55822  87.9084  19.7067 0002252  75.2082 284.9297 13.14501810100001
ONEWEB-0663             
1 55823U 23029AD  25081.07282359  .00000077  00000+0  15700-3 0  9990
2 55823  87.9336   4.4583 0002256  72.7095 287.4285 13.20828380102149
ONEWEB-0664             
1 55824U 23029AE  25081.15069620 -.00000049  00000+0 -15180-3 0  9997
2 55824  87.9339   4.4617 0002063  88.9381 271.1988 13.20772812102164
